[{"OBJECT_NAME":"STARLINK-1983","OBJECT_ID":"2021-012L","EPOCH":"2026-03-09T23:43:29.316000","MEAN_MOTION":15.29345071,"ECCENTRICITY":0.00014952,"INCLINATION":53.1564,"RA_OF_ASC_NODE":48.1538,"ARG_OF_PERICENTER":93.056,"MEAN_ANOMALY":267.0611,"EPHEMERIS_TYPE":0,"CLASSIFICATION_TYPE":"U","NORAD_CAT_ID":47630,"ELEMENT_SET_NO":999,"REV_AT_EPOCH":28032,"BSTAR":-0.00037078918,"MEAN_MOTION_DOT":-0.00011036,"MEAN_MOTION_DDOT":0},{"OBJECT_NAME":"FENGYUN 1C DEB","OBJECT_ID":"1999-025BZU","EPOCH":"2026-03-09T17:19:51.665664","MEAN_MOTION":15.28412118,"ECCENTRICITY":0.00188802,"INCLINATION":98.9598,"RA_OF_ASC_NODE":354.2029,"ARG_OF_PERICENTER":82.3682,"MEAN_ANOMALY":277.9697,"EPHEMERIS_TYPE":0,"CLASSIFICATION_TYPE":"U","NORAD_CAT_ID":31614,"ELEMENT_SET_NO":999,"REV_AT_EPOCH":97742,"BSTAR":0.011500831,"MEAN_MOTION_DOT":0.0033373,"MEAN_MOTION_DDOT":0}]
